{
  "type": "FeatureCollection",
  "features": [
    {
      "type": "Feature",
      "properties": {
        "norad_id": 2807,
        "name": "OPS 7218 (TRANSIT 16)",
        "group": "nnss",
        "lat": 53.1877526675148,
        "lon": -6.051344011162321,
        "alt_km": 1049.2176015434397,
        "timestamp": "2025-12-27T22:26:48.871985+00:00",
        "meta_object_name": "OPS 7218 (TRANSIT 16)",
        "meta_object_id": "1967-048A",
        "meta_epoch": "2025-12-27T12:03:38.941056",
        "meta_mean_motion": 13.50725307,
        "meta_eccentricity": 0.0022106,
        "meta_inclination": 89.6735,
        "meta_ra_of_asc_node": 353.5264,
        "meta_arg_of_pericenter": 74.8289,
        "meta_mean_anomaly": 35.4501,
        "meta_ephemeris_type": 0,
        "meta_classification_type": "U",
        "meta_norad_cat_id": 2807,
        "meta_element_set_no": 999,
        "meta_rev_at_epoch": 88475,
        "meta_bstar": 0.00016898,
        "meta_mean_motion_dot": 1.19e-06,
        "meta_mean_motion_ddot": 0,
        "tle_line1": "1 02807U 67048A   25361.50253404  .00000119  00000+0  16898-3 0  9997",
        "tle_line2": "2 02807  89.6735 353.5264 0022106  74.8289  35.4501 13.50725307884757"
      },
      "geometry": {
        "type": "Point",
        "coordinates": [
          -6.051344011162321,
          53.1877526675148
        ]
      }
    },
    {
      "type": "Feature",
      "properties": {
        "norad_id": 2965,
        "name": "OPS 4947 (TRANSIT 17)",
        "group": "nnss",
        "lat": -87.50431383259664,
        "lon": -139.19887811781436,
        "alt_km": 1059.5852224450891,
        "timestamp": "2025-12-27T22:26:48.872007+00:00",
        "meta_object_name": "OPS 4947 (TRANSIT 17)",
        "meta_object_id": "1967-092A",
        "meta_epoch": "2025-12-27T08:45:58.818240",
        "meta_mean_motion": 13.5345744,
        "meta_eccentricity": 0.0047306,
        "meta_inclination": 89.2485,
        "meta_ra_of_asc_node": 23.3193,
        "meta_arg_of_pericenter": 191.2504,
        "meta_mean_anomaly": 180.0802,
        "meta_ephemeris_type": 0,
        "meta_classification_type": "U",
        "meta_norad_cat_id": 2965,
        "meta_element_set_no": 999,
        "meta_rev_at_epoch": 87295,
        "meta_bstar": 0.000196,
        "meta_mean_motion_dot": 1.44e-06,
        "meta_mean_motion_ddot": 0,
        "tle_line1": "1 02965U 67092A   25361.36526410  .00000144  00000+0  19600-3 0  9997",
        "tle_line2": "2 02965  89.2485  23.3193 0047306 191.2504 180.0802 13.53457440872959"
      },
      "geometry": {
        "type": "Point",
        "coordinates": [
          -139.19887811781436,
          -87.50431383259664
        ]
      }
    },
    {
      "type": "Feature",
      "properties": {
        "norad_id": 3133,
        "name": "OPS 7034 (TRANSIT 18)",
        "group": "nnss",
        "lat": -47.10545717177753,
        "lon": -86.286999839696,
        "alt_km": 1128.8102052995528,
        "timestamp": "2025-12-27T22:26:48.872020+00:00",
        "meta_object_name": "OPS 7034 (TRANSIT 18)",
        "meta_object_id": "1968-012A",
        "meta_epoch": "2025-12-27T07:16:51.955968",
        "meta_mean_motion": 13.51569235,
        "meta_eccentricity": 0.0075134,
        "meta_inclination": 90.0284,
        "meta_ra_of_asc_node": 273.6806,
        "meta_arg_of_pericenter": 127.3584,
        "meta_mean_anomaly": 352.9174,
        "meta_ephemeris_type": 0,
        "meta_classification_type": "U",
        "meta_norad_cat_id": 3133,
        "meta_element_set_no": 999,
        "meta_rev_at_epoch": 57115,
        "meta_bstar": 0.00020808,
        "meta_mean_motion_dot": 1.48e-06,
        "meta_mean_motion_ddot": 0,
        "tle_line1": "1 03133U 68012A   25361.30337912  .00000148  00000+0  20808-3 0  9995",
        "tle_line2": "2 03133  90.0284 273.6806 0075134 127.3584 352.9174 13.51569235571157"
      },
      "geometry": {
        "type": "Point",
        "coordinates": [
          -86.286999839696,
          -47.10545717177753
        ]
      }
    },
    {
      "type": "Feature",
      "properties": {
        "norad_id": 4507,
        "name": "NNSS 19 (TRANSIT 19)",
        "group": "nnss",
        "lat": -88.42606761023994,
        "lon": -125.29216872705004,
        "alt_km": 957.5988384692064,
        "timestamp": "2025-12-27T22:26:48.872032+00:00",
        "meta_object_name": "NNSS 19 (TRANSIT 19)",
        "meta_object_id": "1970-067A",
        "meta_epoch": "2025-12-27T08:39:42.114240",
        "meta_mean_motion": 13.51318099,
        "meta_eccentricity": 0.0170243,
        "meta_inclination": 90.0045,
        "meta_ra_of_asc_node": 234.5437,
        "meta_arg_of_pericenter": 250.5731,
        "meta_mean_anomaly": 107.6955,
        "meta_ephemeris_type": 0,
        "meta_classification_type": "U",
        "meta_norad_cat_id": 4507,
        "meta_element_set_no": 999,
        "meta_rev_at_epoch": 72419,
        "meta_bstar": 0.00012626,
        "meta_mean_motion_dot": 9.8e-07,
        "meta_mean_motion_ddot": 0,
        "tle_line1": "1 04507U 70067A   25361.36090410  .00000098  00000+0  12626-3 0  9992",
        "tle_line2": "2 04507  90.0045 234.5437 0170243 250.5731 107.6955 13.51318099724190"
      },
      "geometry": {
        "type": "Point",
        "coordinates": [
          -125.29216872705004,
          -88.42606761023994
        ]
      }
    },
    {
      "type": "Feature",
      "properties": {
        "norad_id": 6909,
        "name": "NNSS 20 (TRANSIT 20)",
        "group": "nnss",
        "lat": 1.6416715892815192,
        "lon": -105.16937564436927,
        "alt_km": 898.5880309706627,
        "timestamp": "2025-12-27T22:26:48.872043+00:00",
        "meta_object_name": "NNSS 20 (TRANSIT 20)",
        "meta_object_id": "1973-081A",
        "meta_epoch": "2025-12-27T06:40:47.864064",
        "meta_mean_motion": 13.71442091,
        "meta_eccentricity": 0.0155984,
        "meta_inclination": 89.8558,
        "meta_ra_of_asc_node": 254.8364,
        "meta_arg_of_pericenter": 35.2081,
        "meta_mean_anomaly": 325.9268,
        "meta_ephemeris_type": 0,
        "meta_classification_type": "U",
        "meta_norad_cat_id": 6909,
        "meta_element_set_no": 999,
        "meta_rev_at_epoch": 80560,
        "meta_bstar": 0.00028554,
        "meta_mean_motion_dot": 2.91e-06,
        "meta_mean_motion_ddot": 0,
        "tle_line1": "1 06909U 73081A   25361.27833176  .00000291  00000+0  28554-3 0  9995",
        "tle_line2": "2 06909  89.8558 254.8364 0155984  35.2081 325.9268 13.71442091805608"
      },
      "geometry": {
        "type": "Point",
        "coordinates": [
          -105.16937564436927,
          1.6416715892815192
        ]
      }
    },
    {
      "type": "Feature",
      "properties": {
        "norad_id": 10457,
        "name": "TRANSAT",
        "group": "nnss",
        "lat": 33.62862427515982,
        "lon": -102.17620259813245,
        "alt_km": 1054.156069618205,
        "timestamp": "2025-12-27T22:26:48.872053+00:00",
        "meta_object_name": "TRANSAT",
        "meta_object_id": "1977-106A",
        "meta_epoch": "2025-12-27T04:12:20.051712",
        "meta_mean_motion": 13.48945884,
        "meta_eccentricity": 0.00266749,
        "meta_inclination": 89.6473,
        "meta_ra_of_asc_node": 78.0855,
        "meta_arg_of_pericenter": 148.7401,
        "meta_mean_anomaly": 268.7469,
        "meta_ephemeris_type": 0,
        "meta_classification_type": "U",
        "meta_norad_cat_id": 10457,
        "meta_element_set_no": 999,
        "meta_rev_at_epoch": 36938,
        "meta_bstar": 0.00012462096,
        "meta_mean_motion_dot": 8.9e-07,
        "meta_mean_motion_ddot": 0,
        "tle_line1": "1 10457U 77106A   25361.17523208  .00000089  00000+0  12462-3 0  9997",
        "tle_line2": "2 10457  89.6473  78.0855 0026674 148.7401 268.7469 13.48945884369384"
      },
      "geometry": {
        "type": "Point",
        "coordinates": [
          -102.17620259813245,
          33.62862427515982
        ]
      }
    },
    {
      "type": "Feature",
      "properties": {
        "norad_id": 12458,
        "name": "NOVA 1",
        "group": "nnss",
        "lat": 85.77385959273974,
        "lon": 93.16791916547021,
        "alt_km": 1153.6277942095394,
        "timestamp": "2025-12-27T22:26:48.872064+00:00",
        "meta_object_name": "NOVA 1",
        "meta_object_id": "1981-044A",
        "meta_epoch": "2025-12-27T07:49:23.642976",
        "meta_mean_motion": 13.23280201,
        "meta_eccentricity": 0.0015642,
        "meta_inclination": 89.8525,
        "meta_ra_of_asc_node": 91.1789,
        "meta_arg_of_pericenter": 68.0967,
        "meta_mean_anomaly": 356.6259,
        "meta_ephemeris_type": 0,
        "meta_classification_type": "U",
        "meta_norad_cat_id": 12458,
        "meta_element_set_no": 999,
        "meta_rev_at_epoch": 15379,
        "meta_bstar": 0.00012527,
        "meta_mean_motion_dot": 6.2e-07,
        "meta_mean_motion_ddot": 0,
        "tle_line1": "1 12458U 81044A   25361.32596809  .00000062  00000+0  12527-3 0  9993",
        "tle_line2": "2 12458  89.8525  91.1789 0015642  68.0967 356.6259 13.23280201153791"
      },
      "geometry": {
        "type": "Point",
        "coordinates": [
          93.16791916547021,
          85.77385959273974
        ]
      }
    }
  ]
}